<?xml version='1.0' encoding='utf-8'?>
<q:quakeml xmlns:q="http://quakeml.org/xmlns/quakeml/1.2" xmlns:ns0="http://erdbeben-in-bayern.de/xmlns/0.1" xmlns="http://quakeml.org/xmlns/bed/1.2">
  <eventParameters publicID="smi:local/0b71dcfb-4460-4396-b0be-9a7eaa1116ea">
    <event publicID="smi:de.erdbeben-in-bayern/event/20100622214704">
      <preferredOriginID>smi:local/47ab701d-a2e9-4d3d-89ec-6e2d0f82199a</preferredOriginID>
      <preferredMagnitudeID>smi:de.erdbeben-in-bayern/magnitude/cef6c2e2-b532-4dd1-84e7-75a7a7095ef2</preferredMagnitudeID>
      <creationInfo>
        <agencyID>Erdbebendienst Bayern</agencyID>
        <agencyURI>smi:de.erdbeben-in-bayern/agency</agencyURI>
        <author>megies</author>
        <creationTime>2014-09-19T14:58:18.281839Z</creationTime>
      </creationInfo>
      <origin publicID="smi:de.erdbeben-in-bayern/origin/6429bfd9-8a51-4bef-ba74-193c809f90f7">
        <time>
          <value>2010-05-27T16:24:31.802036Z</value>
        </time>
        <latitude>
          <value>48.0456</value>
        </latitude>
        <longitude>
          <value>11.6457</value>
        </longitude>
        <depth>
          <value>4640.576</value>
          <uncertainty>360.124613583</uncertainty>
        </depth>
        <depthType>from location</depthType>
        <methodID>smi:de.erdbeben-in-bayern/location_method/NLLoc/1</methodID>
        <earthModelID>smi:de.erdbeben-in-bayern/earth_model/UH/1</earthModelID>
        <quality>
          <associatedPhaseCount>8</associatedPhaseCount>
          <usedPhaseCount>8</usedPhaseCount>
          <associatedStationCount>4</associatedStationCount>
          <usedStationCount>4</usedStationCount>
          <depthPhaseCount>0</depthPhaseCount>
          <standardError>0.028597</standardError>
          <azimuthalGap>134.0</azimuthalGap>
          <minimumDistance>0.0155129519113</minimumDistance>
          <maximumDistance>0.0750076373802</maximumDistance>
          <medianDistance>0.0318781782186</medianDistance>
          <ns0:usedPhaseCountP>4</ns0:usedPhaseCountP>
          <ns0:usedPhaseCountS>4</ns0:usedPhaseCountS>
        </quality>
        <originUncertainty>
          <preferredDescription>uncertainty ellipse</preferredDescription>
          <minHorizontalUncertainty>265.791274229</minHorizontalUncertainty>
          <maxHorizontalUncertainty>293.646266911</maxHorizontalUncertainty>
          <azimuthMaxHorizontalUncertainty>0.0</azimuthMaxHorizontalUncertainty>
        </originUncertainty>
        <arrival publicID="smi:de.erdbeben-in-bayern/arrival/d45fa693-cf3b-46c9-b722-b8abc2326de3">
          <pickID>smi:de.erdbeben-in-bayern/pick/1341b3dd-21de-4c6c-92db-40bfe76e8950</pickID>
          <phase>P</phase>
          <azimuth>349.0</azimuth>
          <distance>0.0364648094123</distance>
          <timeResidual>-0.036</timeResidual>
          <timeWeight>1.0811</timeWeight>
        </arrival>
        <arrival publicID="smi:de.erdbeben-in-bayern/arrival/0491cfe7-af90-4fe9-b9ac-f80a67d8f8eb">
          <pickID>smi:de.erdbeben-in-bayern/pick/411b855b-874d-40dd-a9f6-693b24ab316e</pickID>
          <phase>S</phase>
          <azimuth>348.5</azimuth>
          <distance>0.0364648094123</distance>
          <timeResidual>0.0028</timeResidual>
          <timeWeight>1.0811</timeWeight>
        </arrival>
        <arrival publicID="smi:de.erdbeben-in-bayern/arrival/87f4e214-972b-4ac7-b4f5-1d6a3237333f">
          <pickID>smi:de.erdbeben-in-bayern/pick/dab15c17-ed1a-4179-b02e-da6f21130e67</pickID>
          <phase>P</phase>
          <azimuth>62.0</azimuth>
          <distance>0.0272915470249</distance>
          <timeResidual>-0.0165</timeResidual>
          <timeWeight>1.0811</timeWeight>
        </arrival>
        <arrival publicID="smi:de.erdbeben-in-bayern/arrival/b0282348-2aba-4198-bb17-aecfda96edcc">
          <pickID>smi:de.erdbeben-in-bayern/pick/020af56c-b180-4ce6-97e3-de93b59d3cc9</pickID>
          <phase>S</phase>
          <azimuth>61.3</azimuth>
          <distance>0.0272915470249</distance>
          <timeResidual>0.0339</timeResidual>
          <timeWeight>1.0811</timeWeight>
        </arrival>
        <arrival publicID="smi:de.erdbeben-in-bayern/arrival/64ae5bb2-2fe8-42af-ac36-9a4dc758b905">
          <pickID>smi:de.erdbeben-in-bayern/pick/2e88215e-fc34-4ab0-adaa-8f7efeb58d3e</pickID>
          <phase>P</phase>
          <azimuth>203.0</azimuth>
          <distance>0.0155129519113</distance>
          <timeResidual>-0.0223</timeResidual>
          <timeWeight>1.0811</timeWeight>
        </arrival>
        <arrival publicID="smi:de.erdbeben-in-bayern/arrival/8403fffd-d245-46bb-af7c-2d91011677a1">
          <pickID>smi:de.erdbeben-in-bayern/pick/8da7beff-b3e0-44b4-b4bc-40c8dad3e545</pickID>
          <phase>S</phase>
          <azimuth>203.5</azimuth>
          <distance>0.0155129519113</distance>
          <timeResidual>-0.0091</timeResidual>
          <timeWeight>1.0811</timeWeight>
        </arrival>
        <arrival publicID="smi:de.erdbeben-in-bayern/arrival/4dcbd27b-f55b-49bc-ad69-c5a60e1e0dca">
          <pickID>smi:de.erdbeben-in-bayern/pick/049bc321-ed62-4d1f-93fa-9704ab0ef142</pickID>
          <phase>P</phase>
          <azimuth>259.4</azimuth>
          <distance>0.0750076373802</distance>
          <timeResidual>0.0519</timeResidual>
          <timeWeight>1.0811</timeWeight>
        </arrival>
        <arrival publicID="smi:de.erdbeben-in-bayern/arrival/0cf218d1-e52b-497e-abc4-fceb4ea10462">
          <pickID>smi:de.erdbeben-in-bayern/pick/5a178528-57dd-4f89-865a-f22e72680145</pickID>
          <phase>S</phase>
          <azimuth>259.2</azimuth>
          <distance>0.0750076373802</distance>
          <timeResidual>-0.0118</timeResidual>
          <timeWeight>0.4324</timeWeight>
        </arrival>
      </origin>
      <origin publicID="smi:local/beb16b36-4c16-4631-b892-02ce0f8abc8a">
        <time>
          <value>2010-05-27T16:24:31.802036Z</value>
        </time>
        <latitude>
          <value>48.047913</value>
        </latitude>
        <longitude>
          <value>11.645788</value>
        </longitude>
        <depth>
          <value>4907.0</value>
        </depth>
        <methodID>smi:local/hypodd</methodID>
        <comment id="smi:local/5c7edf1e-1c62-4260-9c30-e57fb771cad1">
          <text>Old HypoDD relocation, based on initial NonLinLoc absolute location.</text>
        </comment>
        <creationInfo>
          <creationTime>2012-02-01T00:00:00.000000Z</creationTime>
        </creationInfo>
      </origin>
      <origin publicID="smi:local/47ab701d-a2e9-4d3d-89ec-6e2d0f82199a">
        <time>
          <value>2010-05-27T16:24:31.802036Z</value>
        </time>
        <latitude>
          <value>48.0480451937</value>
        </latitude>
        <longitude>
          <value>11.6458020853</value>
        </longitude>
        <depth>
          <value>4835.0</value>
        </depth>
        <methodID>smi:local/master_event</methodID>
        <comment id="smi:local/d4e90ad4-2aa0-4d08-b5ce-865f39c1a3be">
          <text>Old master-event location, based on initial NonLinLoc absolute location and subsequent HypoDD relocation. Absolute locations determined by HypoDD location of master events.</text>
        </comment>
        <creationInfo>
          <creationTime>2012-02-01T00:00:00.000000Z</creationTime>
        </creationInfo>
      </origin>
      <magnitude publicID="smi:de.erdbeben-in-bayern/magnitude/cef6c2e2-b532-4dd1-84e7-75a7a7095ef2">
        <mag>
          <value>2.08662460284</value>
          <uncertainty>0.31581487416</uncertainty>
          <confidenceLevel>68.3</confidenceLevel>
        </mag>
        <type>Ml</type>
        <originID>smi:de.erdbeben-in-bayern/origin/6429bfd9-8a51-4bef-ba74-193c809f90f7</originID>
        <methodID>smi:de.erdbeben-in-bayern/magnitude_method/obspy/1</methodID>
        <stationCount>4</stationCount>
        <stationMagnitudeContribution>
          <stationMagnitudeID>smi:de.erdbeben-in-bayern/station_magnitude/2179d0cf-d212-4051-a77f-a254fc93f4a7</stationMagnitudeID>
          <weight>0.25</weight>
        </stationMagnitudeContribution>
        <stationMagnitudeContribution>
          <stationMagnitudeID>smi:de.erdbeben-in-bayern/station_magnitude/f3d6105e-1606-46a0-b5f2-72fd474eae3d</stationMagnitudeID>
          <weight>0.25</weight>
        </stationMagnitudeContribution>
        <stationMagnitudeContribution>
          <stationMagnitudeID>smi:de.erdbeben-in-bayern/station_magnitude/fd04319f-cc9f-4c4c-b395-11f8a9d7f405</stationMagnitudeID>
          <weight>0.25</weight>
        </stationMagnitudeContribution>
        <stationMagnitudeContribution>
          <stationMagnitudeID>smi:de.erdbeben-in-bayern/station_magnitude/6ce3eb2f-a320-4ecf-b4d2-2d89daa85919</stationMagnitudeID>
          <weight>0.25</weight>
        </stationMagnitudeContribution>
      </magnitude>
      <stationMagnitude publicID="smi:de.erdbeben-in-bayern/station_magnitude/2179d0cf-d212-4051-a77f-a254fc93f4a7">
        <originID>smi:de.erdbeben-in-bayern/origin/6429bfd9-8a51-4bef-ba74-193c809f90f7</originID>
        <mag>
          <value>2.08033242594</value>
        </mag>
        <methodID>smi:de.erdbeben-in-bayern/station_magnitude_method/obspyck/1</methodID>
        <waveformID locationCode="" networkCode="BW" stationCode="UH1"></waveformID>
      </stationMagnitude>
      <stationMagnitude publicID="smi:de.erdbeben-in-bayern/station_magnitude/f3d6105e-1606-46a0-b5f2-72fd474eae3d">
        <originID>smi:de.erdbeben-in-bayern/origin/6429bfd9-8a51-4bef-ba74-193c809f90f7</originID>
        <mag>
          <value>2.20906300614</value>
        </mag>
        <methodID>smi:de.erdbeben-in-bayern/station_magnitude_method/obspyck/1</methodID>
        <waveformID locationCode="" networkCode="BW" stationCode="UH2"></waveformID>
      </stationMagnitude>
      <stationMagnitude publicID="smi:de.erdbeben-in-bayern/station_magnitude/fd04319f-cc9f-4c4c-b395-11f8a9d7f405">
        <originID>smi:de.erdbeben-in-bayern/origin/6429bfd9-8a51-4bef-ba74-193c809f90f7</originID>
        <mag>
          <value>2.46282122834</value>
        </mag>
        <methodID>smi:de.erdbeben-in-bayern/station_magnitude_method/obspyck/1</methodID>
        <waveformID locationCode="" networkCode="BW" stationCode="UH3"></waveformID>
      </stationMagnitude>
      <stationMagnitude publicID="smi:de.erdbeben-in-bayern/station_magnitude/6ce3eb2f-a320-4ecf-b4d2-2d89daa85919">
        <originID>smi:de.erdbeben-in-bayern/origin/6429bfd9-8a51-4bef-ba74-193c809f90f7</originID>
        <mag>
          <value>1.59428175093</value>
        </mag>
        <methodID>smi:de.erdbeben-in-bayern/station_magnitude_method/obspyck/1</methodID>
        <waveformID locationCode="" networkCode="BW" stationCode="UH4"></waveformID>
      </stationMagnitude>
      <pick publicID="smi:de.erdbeben-in-bayern/pick/1341b3dd-21de-4c6c-92db-40bfe76e8950">
        <time>
          <value>2010-05-27T16:24:33.315000Z</value>
          <uncertainty>0.01</uncertainty>
        </time>
        <waveformID channelCode="EHZ" locationCode="" networkCode="BW" stationCode="UH1"></waveformID>
        <phaseHint>P</phaseHint>
        <polarity>negative</polarity>
        <ns0:weight>0</ns0:weight>
      </pick>
      <pick publicID="smi:de.erdbeben-in-bayern/pick/411b855b-874d-40dd-a9f6-693b24ab316e">
        <time>
          <value>2010-05-27T16:24:34.710000Z</value>
          <uncertainty>0.055</uncertainty>
        </time>
        <waveformID channelCode="EHN" locationCode="" networkCode="BW" stationCode="UH1"></waveformID>
        <phaseHint>S</phaseHint>
        <ns0:weight>0</ns0:weight>
      </pick>
      <pick publicID="smi:de.erdbeben-in-bayern/pick/dab15c17-ed1a-4179-b02e-da6f21130e67">
        <time>
          <value>2010-05-27T16:24:33.219999Z</value>
          <uncertainty>0.01</uncertainty>
        </time>
        <waveformID channelCode="EHZ" locationCode="" networkCode="BW" stationCode="UH2"></waveformID>
        <phaseHint>P</phaseHint>
        <polarity>positive</polarity>
        <ns0:weight>0</ns0:weight>
      </pick>
      <pick publicID="smi:de.erdbeben-in-bayern/pick/020af56c-b180-4ce6-97e3-de93b59d3cc9">
        <time>
          <value>2010-05-27T16:24:34.514999Z</value>
          <uncertainty>0.03</uncertainty>
        </time>
        <waveformID channelCode="EHN" locationCode="" networkCode="BW" stationCode="UH2"></waveformID>
        <phaseHint>S</phaseHint>
        <ns0:weight>0</ns0:weight>
      </pick>
      <pick publicID="smi:de.erdbeben-in-bayern/pick/2e88215e-fc34-4ab0-adaa-8f7efeb58d3e">
        <time>
          <value>2010-05-27T16:24:33.109999Z</value>
          <uncertainty>0.01</uncertainty>
        </time>
        <waveformID channelCode="EHZ" locationCode="" networkCode="BW" stationCode="UH3"></waveformID>
        <phaseHint>P</phaseHint>
        <ns0:weight>0</ns0:weight>
      </pick>
      <pick publicID="smi:de.erdbeben-in-bayern/pick/8da7beff-b3e0-44b4-b4bc-40c8dad3e545">
        <time>
          <value>2010-05-27T16:24:34.264999Z</value>
          <uncertainty>0.03</uncertainty>
        </time>
        <waveformID channelCode="EHN" locationCode="" networkCode="BW" stationCode="UH3"></waveformID>
        <phaseHint>S</phaseHint>
        <ns0:weight>0</ns0:weight>
      </pick>
      <pick publicID="smi:de.erdbeben-in-bayern/pick/049bc321-ed62-4d1f-93fa-9704ab0ef142">
        <time>
          <value>2010-05-27T16:24:34.099999Z</value>
          <uncertainty>0.015</uncertainty>
        </time>
        <waveformID channelCode="EHZ" locationCode="" networkCode="BW" stationCode="UH4"></waveformID>
        <phaseHint>P</phaseHint>
        <ns0:weight>0</ns0:weight>
      </pick>
      <pick publicID="smi:de.erdbeben-in-bayern/pick/5a178528-57dd-4f89-865a-f22e72680145">
        <time>
          <value>2010-05-27T16:24:36.114999Z</value>
          <uncertainty>0.04</uncertainty>
        </time>
        <waveformID channelCode="EHN" locationCode="" networkCode="BW" stationCode="UH4"></waveformID>
        <phaseHint>S</phaseHint>
        <ns0:weight>1</ns0:weight>
      </pick>
      <pick publicID="smi:de.erdbeben-in-bayern/pick/46f2b32d-ed40-4a27-93f9-2d1353fc4277">
        <time>
          <value>2010-05-27T16:24:37.924999Z</value>
        </time>
        <waveformID channelCode="HHZ" locationCode="" networkCode="GR" stationCode="FUR"></waveformID>
        <phaseHint>P</phaseHint>
        <comment id="smi:local/47bbbfb6-a96b-400b-8085-bccbe672ad95">
          <text>Pick is only useful for P/S cross correlation timing in HypoDD.</text>
        </comment>
      </pick>
      <pick publicID="smi:de.erdbeben-in-bayern/pick/9ccf0156-bf76-46c2-8953-6e2d45518e02">
        <time>
          <value>2010-05-27T16:24:42.424999Z</value>
        </time>
        <waveformID channelCode="HHN" locationCode="" networkCode="GR" stationCode="FUR"></waveformID>
        <phaseHint>S</phaseHint>
        <comment id="smi:local/7b10637e-b68c-4f43-b277-739a05d493e6">
          <text>Pick is only useful for P/S cross correlation timing in HypoDD.</text>
        </comment>
      </pick>
      <pick publicID="smi:de.erdbeben-in-bayern/pick/3e030f79-655e-45d4-82fe-a3dd20b6e0fe">
        <time>
          <value>2010-05-27T16:24:50.980000Z</value>
        </time>
        <waveformID channelCode="EHZ" locationCode="" networkCode="BW" stationCode="NORI"></waveformID>
        <phaseHint>P</phaseHint>
        <comment id="smi:local/a11bc5e5-443c-4a42-bb2c-63f046844c8c">
          <text>Pick is only useful for P/S cross correlation timing in HypoDD.</text>
        </comment>
      </pick>
      <pick publicID="smi:de.erdbeben-in-bayern/pick/a64e5a08-a793-49c4-9caa-4e3370fc99f0">
        <time>
          <value>2010-05-27T16:25:03.825000Z</value>
        </time>
        <waveformID channelCode="EHN" locationCode="" networkCode="BW" stationCode="NORI"></waveformID>
        <phaseHint>S</phaseHint>
        <comment id="smi:local/a6624157-238a-4cce-a3ff-f338bce38f82">
          <text>Pick is only useful for P/S cross correlation timing in HypoDD.</text>
        </comment>
      </pick>
      <pick publicID="smi:de.erdbeben-in-bayern/pick/2bd98085-e603-4f56-a4b6-d89fb322f6a2">
        <time>
          <value>2010-05-27T16:24:54.515000Z</value>
        </time>
        <waveformID channelCode="EHZ" locationCode="" networkCode="BW" stationCode="OBER"></waveformID>
        <phaseHint>P</phaseHint>
        <comment id="smi:local/70f56457-c1f5-4301-9d83-92aceb611092">
          <text>Pick is only useful for P/S cross correlation timing in HypoDD.</text>
        </comment>
      </pick>
      <pick publicID="smi:de.erdbeben-in-bayern/pick/05d3c2d0-1383-4bcc-871e-798499f8f8bf">
        <time>
          <value>2010-05-27T16:25:09.095000Z</value>
        </time>
        <waveformID channelCode="EHN" locationCode="" networkCode="BW" stationCode="OBER"></waveformID>
        <phaseHint>S</phaseHint>
        <comment id="smi:local/9e717d92-37a5-4009-b104-6abef0377b7a">
          <text>Pick is only useful for P/S cross correlation timing in HypoDD.</text>
        </comment>
      </pick>
      <pick publicID="smi:de.erdbeben-in-bayern/pick/f0b1a667-a000-4559-8c70-bdb9143a086c">
        <time>
          <value>2010-05-27T16:24:50.950000Z</value>
        </time>
        <waveformID channelCode="EHZ" locationCode="" networkCode="BW" stationCode="RJOB"></waveformID>
        <phaseHint>P</phaseHint>
        <comment id="smi:local/9ff9c929-c079-433c-9d6a-0f1ad04e2f26">
          <text>Pick is only useful for P/S cross correlation timing in HypoDD.</text>
        </comment>
      </pick>
      <pick publicID="smi:de.erdbeben-in-bayern/pick/b64ff10e-c677-4248-874b-c3ed7e27ad69">
        <time>
          <value>2010-05-27T16:25:03.950000Z</value>
        </time>
        <waveformID channelCode="EHN" locationCode="" networkCode="BW" stationCode="RJOB"></waveformID>
        <phaseHint>S</phaseHint>
        <comment id="smi:local/82d0c49d-9796-4009-a572-a34937c13420">
          <text>Pick is only useful for P/S cross correlation timing in HypoDD.</text>
        </comment>
      </pick>
      <pick publicID="smi:de.erdbeben-in-bayern/pick/73403c2d-b717-4679-8082-671d83e452da">
        <time>
          <value>2010-05-27T16:24:48.954999Z</value>
        </time>
        <waveformID channelCode="EHZ" locationCode="" networkCode="BW" stationCode="RTBE"></waveformID>
        <phaseHint>P</phaseHint>
        <comment id="smi:local/6652ba29-0aff-498f-90a1-71553026c936">
          <text>Pick is only useful for P/S cross correlation timing in HypoDD.</text>
        </comment>
      </pick>
      <pick publicID="smi:de.erdbeben-in-bayern/pick/d13f71f8-78fa-4d26-b8f2-87860fa8d073">
        <time>
          <value>2010-05-27T16:25:03.244999Z</value>
        </time>
        <waveformID channelCode="EHE" locationCode="" networkCode="BW" stationCode="RTBE"></waveformID>
        <phaseHint>S</phaseHint>
        <comment id="smi:local/27ad6241-8ef2-447d-a19e-997ad13abd7b">
          <text>Pick is only useful for P/S cross correlation timing in HypoDD.</text>
        </comment>
      </pick>
      <pick publicID="smi:de.erdbeben-in-bayern/pick/360fa691-273f-4bb2-a285-7528aa70e126">
        <time>
          <value>2010-05-27T16:24:52.963000Z</value>
        </time>
        <waveformID channelCode="EHZ" locationCode="" networkCode="BW" stationCode="SCE"></waveformID>
        <phaseHint>P</phaseHint>
        <comment id="smi:local/da894712-da27-43e4-bdc5-1a7c2fac16d7">
          <text>Pick is only useful for P/S cross correlation timing in HypoDD.</text>
        </comment>
      </pick>
      <pick publicID="smi:de.erdbeben-in-bayern/pick/31e78505-13b4-4805-a39d-824eb3356a08">
        <time>
          <value>2010-05-27T16:25:09.443000Z</value>
        </time>
        <waveformID channelCode="EHN" locationCode="" networkCode="BW" stationCode="SCE"></waveformID>
        <phaseHint>S</phaseHint>
